[{"OBJECT_NAME":"X-SAT","OBJECT_ID":"2011-015C","EPOCH":"2026-03-09T22:53:38.580000","MEAN_MOTION":14.25171741,"ECCENTRICITY":0.0012844,"INCLINATION":98.3436,"RA_OF_ASC_NODE":50.7528,"ARG_OF_PERICENTER":275.8425,"MEAN_ANOMALY":84.1292,"EPHEMERIS_TYPE":0,"CLASSIFICATION_TYPE":"U","NORAD_CAT_ID":37389,"ELEMENT_SET_NO":999,"REV_AT_EPOCH":77354,"BSTAR":-4.3267073e-5,"MEAN_MOTION_DOT":-1.43e-6,"MEAN_MOTION_DDOT":0},{"OBJECT_NAME":"DELTA 1 DEB","OBJECT_ID":"1972-058KB","EPOCH":"2026-03-05T08:42:31.178304","MEAN_MOTION":14.20188818,"ECCENTRICITY":0.0027728,"INCLINATION":98.9481,"RA_OF_ASC_NODE":94.94,"ARG_OF_PERICENTER":172.0725,"MEAN_ANOMALY":188.0895,"EPHEMERIS_TYPE":0,"CLASSIFICATION_TYPE":"U","NORAD_CAT_ID":42568,"ELEMENT_SET_NO":999,"REV_AT_EPOCH":6500,"BSTAR":0.00031807,"MEAN_MOTION_DOT":6.36e-6,"MEAN_MOTION_DDOT":0}]
